[{"OBJECT_NAME":"TRANSPORTER-12 OBJECT AZ","OBJECT_ID":"2025-009AZ","EPOCH":"2026-03-09T17:02:46.667040","MEAN_MOTION":15.30349724,"ECCENTRICITY":9.87e-5,"INCLINATION":97.3981,"RA_OF_ASC_NODE":151.9913,"ARG_OF_PERICENTER":45.3581,"MEAN_ANOMALY":314.774,"EPHEMERIS_TYPE":0,"CLASSIFICATION_TYPE":"U","NORAD_CAT_ID":62656,"ELEMENT_SET_NO":999,"REV_AT_EPOCH":6379,"BSTAR":0.00054902545,"MEAN_MOTION_DOT":0.00016057,"MEAN_MOTION_DDOT":0},{"OBJECT_NAME":"STARLINK-36160","OBJECT_ID":"2025-286M","EPOCH":"2026-03-09T22:44:31.582464","MEAN_MOTION":15.30186826,"ECCENTRICITY":0.00015011,"INCLINATION":53.1612,"RA_OF_ASC_NODE":357.4384,"ARG_OF_PERICENTER":63.5832,"MEAN_ANOMALY":296.5322,"EPHEMERIS_TYPE":0,"CLASSIFICATION_TYPE":"U","NORAD_CAT_ID":66936,"ELEMENT_SET_NO":999,"REV_AT_EPOCH":1544,"BSTAR":0.0015218668,"MEAN_MOTION_DOT":0.00044969,"MEAN_MOTION_DDOT":0}]
